IRIDIUM 155             
1 43573U 18061E   22232.83373290  .00000127  00000+0  38132-4 0  9994
2 43573  86.3934 280.2154 0002000  96.2957 263.8466 14.34218669213228
IRIDIUM 154             
1 43574U 18061F   22232.67516432  .00000129  00000+0  38987-4 0  9994
2 43574  86.3938 280.3482 0002423  86.3154 273.8319 14.34221037213249
IRIDIUM 163             
1 43575U 18061G   22232.86544387  .00000127  00000+0  38142-4 0  9997
2 43575  86.3936 280.2269 0002623  96.3386 263.8108 14.34220942213249
IRIDIUM 156             
1 43576U 18061H   22232.56101226  .00000134  00000+0  40662-4 0  9994
2 43576  86.3936 280.3597 0002328 100.2671 259.8787 14.34220185213190
IRIDIUM 164             
1 43577U 18061J   22232.54196628  .00000122  00000+0  36433-4 0  9991
2 43577  86.3937 280.3867 0002518  88.8707 271.2778 14.34221216213233
IRIDIUM 159             
1 43578U 18061K   22232.64980647  .00000128  00000+0  38748-4 0  9992
2 43578  86.3935 280.3077 0002434  88.5479 271.5996 14.34219047213217
IRIDIUM 180             
1 43922U 19002A   22232.92836415  .00000115  00000+0  34013-4 0  9992
2 43922  86.3979 217.0604 0002801  80.9304 279.2209 14.34219213188906
IRIDIUM 176             
1 43923U 19002B   22232.49054948  .00000248  00000+0  35463-4 0  9995
2 43923  86.6113 217.2792 0002530  88.3185 271.8322 14.72252505193754
IRIDIUM 168             
1 43924U 19002C   22232.92202385  .00000109  00000+0  31714-4 0  9995
2 43924  86.3980 217.1008 0002405  81.9960 278.1509 14.34219252188845
IRIDIUM 173             
1 43925U 19002D   22232.76981521  .00000118  00000+0  35031-4 0  9990
2 43925  86.3977 217.1103 0002476  84.1244 276.0234 14.34216911188814
IRIDIUM 169             
1 43926U 19002E   22232.57240327  .00000106  00000+0  28196-4 0  9993
2 43926  86.4190 248.7799 0002161 253.7124 106.3837 14.38603737189439
IRIDIUM 172             
1 43927U 19002F   22232.48439080  .00000119  00000+0  35374-4 0  9990
2 43927  86.3977 217.2333 0002518  83.2885 276.8597 14.34219606188779
IRIDIUM 175             
1 43928U 19002G   22232.75624276  .00000239  00000+0  33961-4 0  9997
2 43928  86.6115 217.0006 0002519  85.2484 274.9021 14.72258947193781
IRIDIUM 171             
1 43929U 19002H   22232.67466997  .00000117  00000+0  34687-4 0  9994
2 43929  86.3986 217.3048 0002377  81.8030 278.3436 14.34218123188798
IRIDIUM 170             
1 43930U 19002J   22232.49673471  .00000242  00000+0  34388-4 0  9990
2 43930  86.6113 217.2819 0002339  87.1360 273.0124 14.72253837193765
IRIDIUM 167             
1 43931U 19002K   22232.87762371  .00000117  00000+0  34590-4 0  9997
2 43931  86.3978 217.0790 0002605  81.2571 278.8920 14.34219421188820
